NORAD_CAT_ID,OBJECT_NAME,OBJECT_TYPE,EPOCH,MEAN_MOTION,ECCENTRICITY,INCLINATION,RA_OF_ASC_NODE,ARG_OF_PERICENTER,MEAN_ANOMALY,BSTAR,MEAN_MOTION_DOT,MEAN_MOTION_DDOT,TLE_LINE0,TLE_LINE1,TLE_LINE2,SEMIMAJOR_AXIS,PERIOD,APOGEE,PERIGEE,DECAYED
53628.0,STARLINK-4600,PAYLOAD,2024-03-05 21:33:39,15.08834114,0.0001315,53.2174,287.7994,86.3326,273.7816,-0.00014435,-2.584e-05,0.0,0 STARLINK-4600,1 53628U 22104AS  24065.89837761 -.00002584  00000-0 -14435-3 0  9990,2 53628  53.2174 287.7994 0001315  86.3326 273.7816 15.08834114 84294,6917.898,95.438,540.673,538.854,0.0
53628.0,STARLINK-4600,PAYLOAD,2024-03-06 13:27:31,15.08835691,0.0001249,53.2168,284.8269,77.2415,282.8716,0.00011209,1.496e-05,0.0,0 STARLINK-4600,1 53628U 22104AS  24066.56078135  .00001496  00000-0  11209-3 0  9992,2 53628  53.2168 284.8269 0001249  77.2415 282.8716 15.08835691 85083,6917.894,95.438,540.623,538.895,0.0
53628.0,STARLINK-4600,PAYLOAD,2024-03-06 21:24:27,15.08843158,0.0001341,53.2172,283.3428,78.5388,281.5755,0.00054379,8.378e-05,0.0,0 STARLINK-4600,1 53628U 22104AS  24066.89198132  .00008378  00000-0  54379-3 0  9999,2 53628  53.2172 283.3428 0001341  78.5388 281.5755 15.08843158 84440,6917.871,95.437,540.663,538.808,0.0
53628.0,STARLINK-4600,PAYLOAD,2024-03-07 13:18:18,15.08841395,0.0001394,53.2171,280.3704,83.2154,276.8996,0.00023524,3.458e-05,0.0,0 STARLINK-4600,1 53628U 22104AS  24067.55438272  .00003458  00000-0  23524-3 0  9997,2 53628  53.2171 280.3704 0001394  83.2154 276.8996 15.08841395 85238,6917.876,95.437,540.705,538.777,0.0
53628.0,STARLINK-4600,PAYLOAD,2024-03-08 13:09:06,15.08837778,0.0001147,53.216,275.907,81.6967,278.4155,4.9929e-05,5.07e-06,0.0,0 STARLINK-4600,1 53628U 22104AS  24068.54798707  .00000507  00000-0  49929-4 0  9999,2 53628  53.2160 275.9070 0001147  81.6967 278.4155 15.08837778 84696,6917.887,95.438,540.546,538.959,0.0
53628.0,STARLINK-4600,PAYLOAD,2024-03-09 06:38:20,15.08849018,0.0001124,53.2157,272.6362,84.6419,275.4701,0.0002966,4.437e-05,0.0,0 STARLINK-4600,1 53628U 22104AS  24069.27662340  .00004437  00000-0  29660-3 0  9998,2 53628  53.2157 272.6362 0001124  84.6419 275.4701 15.08849018 84807,6917.853,95.437,540.495,538.94,0.0
53628.0,STARLINK-4600,PAYLOAD,2024-03-10 06:29:07,15.08844155,0.0001085,53.215,268.1753,85.6633,274.4483,0.00014628,2.041e-05,0.0,0 STARLINK-4600,1 53628U 22104AS  24070.27022400  .00002041  00000-0  14628-3 0  9994,2 53628  53.2150 268.1753 0001085  85.6633 274.4483 15.08844155 84958,6917.868,95.437,540.483,538.982,0.0
53628.0,STARLINK-4600,PAYLOAD,2024-03-10 22:22:58,15.08842872,0.0001131,53.216,265.2,93.4921,266.62,5.714e-05,6.22e-06,0.0,0 STARLINK-4600,1 53628U 22104AS  24070.93262303  .00000622  00000-0  57140-4 0  9995,2 53628  53.2160 265.2000 0001131  93.4921 266.6200 15.08842872 85743,6917.872,95.437,540.519,538.954,0.0
53628.0,STARLINK-4600,PAYLOAD,2024-03-11 06:19:54,15.08838585,0.0001008,53.216,263.712,101.9701,258.1404,0.00010354,1.36e-05,0.0,0 STARLINK-4600,1 53628U 22104AS  24071.26382544  .00001360  00000-0  10354-3 0  9997,2 53628  53.2160 263.7120 0001008 101.9701 258.1404 15.08838585 85101,6917.885,95.438,540.447,539.052,0.0
53628.0,STARLINK-4600,PAYLOAD,2024-03-12 12:32:14,15.08843142,0.0001265,53.2176,258.0624,96.748,263.3656,0.00016364,2.318e-05,0.0,0 STARLINK-4600,1 53628U 22104AS  24072.52238682  .00002318  00000-0  16364-3 0  9991,2 53628  53.2176 258.0624 0001265  96.7480 263.3656 15.08843142 85296,6917.871,95.437,540.611,538.861,0.0
53628.0,STARLINK-4600,PAYLOAD,2024-03-13 12:23:01,15.08843042,0.0001477,53.2151,253.6025,89.7032,270.4129,0.00014128,1.961e-05,0.0,0 STARLINK-4600,1 53628U 22104AS  24073.51598747  .00001961  00000-0  14128-3 0  9991,2 53628  53.2151 253.6025 0001477  89.7032 270.4129 15.08843042 86132,6917.871,95.437,540.758,538.714,0.0
53628.0,STARLINK-4600,PAYLOAD,2024-03-13 20:19:56,15.08843407,0.0001437,53.218,252.1177,87.7417,272.374,0.00015111,2.118e-05,0.0,0 STARLINK-4600,1 53628U 22104AS  24073.84718733  .00002118  00000-0  15111-3 0  9994,2 53628  53.2180 252.1177 0001437  87.7417 272.3740 15.08843407 85490,6917.87,95.437,540.729,538.741,0.0
53628.0,STARLINK-4600,PAYLOAD,2024-03-13 21:55:20,15.08843387,0.0001476,53.2131,251.8182,86.4291,273.687,0.00014482,2.018e-05,0.0,0 STARLINK-4600,1 53628U 22104AS  24073.91342668  .00002018  00000-0  14482-3 0  9991,2 53628  53.2131 251.8182 0001476  86.4291 273.6870 15.08843387 86190,6917.87,95.437,540.756,538.714,0.0
53628.0,STARLINK-4600,PAYLOAD,2024-03-14 04:16:52,15.08844943,0.0001412,53.2136,250.6279,86.8725,273.2429,-6.0904e-05,-1.257e-05,0.0,0 STARLINK-4600,1 53628U 22104AS  24074.17838491 -.00001257  00000-0 -60904-4 0  9991,2 53628  53.2136 250.6279 0001412  86.8725 273.2429 15.08844943 86235,6917.865,95.437,540.707,538.753,0.0
53628.0,STARLINK-4600,PAYLOAD,2024-03-14 12:13:48,15.08840315,0.0001515,53.213,249.1411,85.0583,275.0582,0.00010915,1.45e-05,0.0,0 STARLINK-4600,1 53628U 22104AS  24074.50958803  .00001450  00000-0  10915-3 0  9997,2 53628  53.2130 249.1411 0001515  85.0583 275.0582 15.08840315 86281,6917.879,95.438,540.792,538.696,0.0
53628.0,STARLINK-4600,PAYLOAD,2024-03-16 10:19:59,15.08835976,0.0001489,53.2153,240.5169,82.8317,277.2844,1.8114e-05,0.0,0.0,0 STARLINK-4600,1 53628U 22104AS  24076.43055360  .00000000  00000-0  18114-4 0  9997,2 53628  53.2153 240.5169 0001489  82.8317 277.2844 15.08835976 85888,6917.893,95.438,540.788,538.728,0.0
53628.0,STARLINK-4600,PAYLOAD,2024-03-16 18:16:55,15.08838797,0.000138,53.2176,239.0329,83.8477,276.2673,0.00013163,1.808e-05,0.0,0 STARLINK-4600,1 53628U 22104AS  24076.76175465  .00001808  00000-0  13163-3 0  9997,2 53628  53.2176 239.0329 0001380  83.8477 276.2673 15.08838797 86628,6917.884,95.438,540.704,538.794,0.0
53628.0,STARLINK-4600,PAYLOAD,2024-03-17 10:10:47,15.08839587,0.0001414,53.2177,236.0598,82.0787,278.0365,0.0001166,1.568e-05,0.0,0 STARLINK-4600,1 53628U 22104AS  24077.42415579  .00001568  00000-0  11660-3 0  9997,2 53628  53.2177 236.0598 0001414  82.0787 278.0365 15.08839587 86724,6917.882,95.438,540.725,538.768,0.0
53628.0,STARLINK-4600,PAYLOAD,2024-03-17 18:07:42,15.08844733,0.0001512,53.2179,234.5741,74.7287,285.3872,0.00017099,2.435e-05,0.0,0 STARLINK-4600,1 53628U 22104AS  24077.75535133  .00002435  00000-0  17099-3 0  9998,2 53628  53.2179 234.5741 0001512  74.7287 285.3872 15.08844733 86083,6917.866,95.437,540.777,538.685,0.0
53628.0,STARLINK-4600,PAYLOAD,2024-03-18 05:15:24,15.08837978,0.0001651,53.2165,232.4965,61.9135,298.2024,0.00019419,2.804e-05,0.0,0 STARLINK-4600,1 53628U 22104AS  24078.21903584  .00002804  00000-0  19419-3 0  9997,2 53628  53.2165 232.4965 0001651  61.9135 298.2024 15.08837978 86150,6917.887,95.438,540.894,538.609,0.0
53628.0,STARLINK-4600,PAYLOAD,2024-03-18 19:33:52,15.08840757,0.000139,53.2172,229.8175,79.1679,280.947,8.3321e-05,1.038e-05,0.0,0 STARLINK-4600,1 53628U 22104AS  24078.81519577  .00001038  00000-0  83321-4 0  9990,2 53628  53.2172 229.8175 0001390  79.1679 280.9470 15.08840757 86933,6917.878,95.438,540.705,538.781,0.0
53628.0,STARLINK-4600,PAYLOAD,2024-03-19 09:52:20,15.08853215,0.000147,53.218,227.1403,101.826,258.2897,-2.6409e-05,-7.08e-06,0.0,0 STARLINK-4600,1 53628U 22104AS  24079.41135021 -.00000708  00000-0 -26409-4 0  9994,2 53628  53.2180 227.1403 0001470 101.8260 258.2897 15.08853215 87020,6917.84,95.437,540.722,538.688,0.0
53628.0,STARLINK-4600,PAYLOAD,2024-03-19 13:03:07,15.08849437,0.00017,53.2167,226.5489,77.7035,282.4147,7.9069e-05,9.71e-06,0.0,0 STARLINK-4600,1 53628U 22104AS  24079.54383122  .00000971  00000-0  79069-4 0  9995,2 53628  53.2167 226.5489 0001700  77.7035 282.4147 15.08849437 86352,6917.852,95.437,540.893,538.541,0.0
53628.0,STARLINK-4600,PAYLOAD,2024-03-20 09:43:08,15.08839085,0.0001548,53.2166,222.6812,97.8855,262.2313,0.00010744,1.422e-05,0.0,0 STARLINK-4600,1 53628U 22104AS  24080.40495592  .00001422  00000-0  10744-3 0  9993,2 53628  53.2166 222.6812 0001548  97.8855 262.2313 15.08839085 86484,6917.883,95.438,540.819,538.677,0.0
53628.0,STARLINK-4600,PAYLOAD,2024-03-20 12:53:54,15.08834757,0.0001433,53.2165,222.0849,108.7126,251.4022,5.052e-05,5.16e-06,0.0,0 STARLINK-4600,1 53628U 22104AS  24080.53743826  .00000516  00000-0  50520-4 0  9993,2 53628  53.2165 222.0849 0001433 108.7126 251.4022 15.08834757 87190,6917.896,95.438,540.753,538.77,0.0
53628.0,STARLINK-4600,PAYLOAD,2024-03-20 16:04:40,15.08834483,0.0001541,53.2165,221.4896,101.7745,258.342,1.7696e-05,-6e-08,0.0,0 STARLINK-4600,1 53628U 22104AS  24080.66991831 -.00000006  00000-0  17696-4 0  9990,2 53628  53.2165 221.4896 0001541 101.7745 258.3420 15.08834483 87212,6917.897,95.438,540.828,538.696,0.0
53628.0,STARLINK-4600,PAYLOAD,2024-03-21 12:44:42,15.08818689,0.000149,53.2166,217.6226,95.0533,265.0629,-0.00024097,-4.119e-05,0.0,0 STARLINK-4600,1 53628U 22104AS  24081.53105271 -.00004119  00000-0 -24097-3 0  9994,2 53628  53.2166 217.6226 0001490  95.0533 265.0629 15.08818689 86653,6917.946,95.439,540.841,538.78,0.0
53628.0,STARLINK-4600,PAYLOAD,2024-03-21 14:20:06,15.08823322,0.000152,53.2167,217.3247,92.4944,267.6222,-0.00022275,-3.83e-05,0.0,0 STARLINK-4600,1 53628U 22104AS  24081.59729320 -.00003830  00000-0 -22275-3 0  9992,2 53628  53.2167 217.3247 0001520  92.4944 267.6222 15.08823322 87350,6917.931,95.439,540.848,538.745,0.0
53628.0,STARLINK-4600,PAYLOAD,2024-03-22 12:35:28,15.08865535,0.0001474,53.2173,213.1632,95.9857,264.1303,0.0006493,0.00010068,0.0,0 STARLINK-4600,1 53628U 22104AS  24082.52463250  .00010068  00000-0  64930-3 0  9996,2 53628  53.2173 213.1632 0001474  95.9857 264.1303 15.08865535 86801,6917.802,95.436,540.687,538.648,0.0
53628.0,STARLINK-4600,PAYLOAD,2024-03-22 14:10:51,15.08867086,0.0001502,53.2171,212.8655,96.8899,263.2265,0.00064317,9.97e-05,0.0,0 STARLINK-4600,1 53628U 22104AS  24082.59087073  .00009970  00000-0  64317-3 0  9997,2 53628  53.2171 212.8655 0001502  96.8899 263.2265 15.08867086 87506,6917.798,95.436,540.702,538.624,0.0
